[{"OBJECT_NAME":"YAOGAN-43 01D","OBJECT_ID":"2024-148D","EPOCH":"2026-03-09T10:27:16.254720","MEAN_MOTION":15.28369377,"ECCENTRICITY":0.00025569,"INCLINATION":35.001,"RA_OF_ASC_NODE":61.7102,"ARG_OF_PERICENTER":326.2473,"MEAN_ANOMALY":33.808,"EPHEMERIS_TYPE":0,"CLASSIFICATION_TYPE":"U","NORAD_CAT_ID":60461,"ELEMENT_SET_NO":999,"REV_AT_EPOCH":8700,"BSTAR":0.00037765912,"MEAN_MOTION_DOT":0.00010676,"MEAN_MOTION_DDOT":0},{"OBJECT_NAME":"STARLINK-32831","OBJECT_ID":"2025-022G","EPOCH":"2026-03-09T10:43:45.283296","MEAN_MOTION":15.30184747,"ECCENTRICITY":0.00011695,"INCLINATION":53.1582,"RA_OF_ASC_NODE":130.6971,"ARG_OF_PERICENTER":80.5355,"MEAN_ANOMALY":279.5778,"EPHEMERIS_TYPE":0,"CLASSIFICATION_TYPE":"U","NORAD_CAT_ID":62860,"ELEMENT_SET_NO":999,"REV_AT_EPOCH":6185,"BSTAR":0.00030727685,"MEAN_MOTION_DOT":8.748e-5,"MEAN_MOTION_DDOT":0}]
