YAOGAN-43 01D           
1 60461U 24148D   26068.43560480  .00010676  00000+0  37766-3 0  9999
2 60461  35.0010  61.7102 0002556 326.2473  33.8080 15.28369377 87008
STARLINK-32831          
1 62860U 25022G   26068.44705189  .00008748  00000+0  30728-3 0  9992
2 62860  53.1582 130.6971 0001169  80.5355 279.5778 15.30184747 61853
